EUTELSAT QUANTUM        
1 49056U 21069B   25252.17093719  .00000124  00000+0  00000+0 0  9990
2 49056   0.0436 315.3144 0002230 238.1088 264.2924  1.00270152 15101
EUTELSAT KONNECT VHTS   
1 53765U 22110A   25251.37690336  .00000014  00000+0  00000+0 0  9997
2 53765   0.0543 104.5647 0002718  48.9081 332.5827  1.00268892  4005
EUTELSAT HOTBIRD 13F    
1 54048U 22134A   25251.80719672  .00000085  00000+0  00000+0 0  9999
2 54048   0.0592 291.8509 0001862  69.6357 290.2182  1.00271748 10551
EUTELSAT HOTBIRD 13G    
1 54225U 22146A   25250.87937727  .00000085  00000+0  00000+0 0  9998
2 54225   0.0520 232.1041 0002225 305.4256 139.2390  1.00271190  4637
EUTELSAT 10B            
1 54259U 22157A   25251.66386862  .00000066  00000+0  00000+0 0  9992
2 54259   0.0564 102.8101 0001824 359.9631 134.1984  1.00268882 10192
EUTELSAT 36D            
1 59346U 24059A   25252.23992414  .00000154  00000+0  00000+0 0  9995
2 59346   0.0059 136.2734 0000267  61.9597 272.5373  1.00270527  5335
